OBJECT_NAME,OBJECT_ID,EPOCH,MEAN_MOTION,ECCENTRICITY,INCLINATION,RA_OF_ASC_NODE,ARG_OF_PERICENTER,MEAN_ANOMALY,EPHEMERIS_TYPE,CLASSIFICATION_TYPE,NORAD_CAT_ID,ELEMENT_SET_NO,REV_AT_EPOCH,BSTAR,MEAN_MOTION_DOT,MEAN_MOTION_DDOT
ONEWEB-0189,2021-031H,2026-07-13T04:41:24.062496,13.14502383,.00022797,87.8962,284.5179,98.2297,261.9091,0,U,48217,999,25164,-.61768165E-3,-.216E-5,0
ONEWEB-0196,2021-031J,2026-07-13T05:59:02.639904,13.14502339,.0002142,87.8982,284.5125,103.4458,256.6911,0,U,48218,999,25165,.48041E-3,.191E-5,0
ONEWEB-0183,2021-031K,2026-07-13T05:22:30.162144,13.14502151,.00019538,87.8965,284.5175,94.3730,265.7623,0,U,48219,999,25174,.27603633E-4,.23E-6,0
ONEWEB-0185,2021-031L,2026-07-13T04:10:33.230208,13.14503613,.00022288,87.8975,284.5225,92.7382,267.4003,0,U,48220,999,25166,.39845564E-3,.161E-5,0
ONEWEB-0187,2021-031M,2026-07-13T07:21:02.630880,13.14503174,.0002188,87.8967,284.5102,98.4055,261.7323,0,U,48221,999,25169,.38166E-3,.154E-5,0
ONEWEB-0192,2021-031N,2026-07-13T04:48:15.040512,13.14503240,.00021065,87.8965,284.5214,100.8628,259.2739,0,U,48222,999,25159,-.53680101E-3,-.186E-5,0
ONEWEB-0219,2021-031P,2026-07-13T07:57:46.103904,13.14503161,.0002208,87.8977,284.4879,95.9937,264.1445,0,U,48223,999,25181,.11379E-3,.55E-6,0
ONEWEB-0202,2021-031Q,2026-07-13T07:30:23.563872,13.14502763,.0002611,87.8968,284.5045,108.1314,252.0100,0,U,48224,999,25179,.50285E-3,.199E-5,0
ONEWEB-0204,2021-031R,2026-07-12T19:32:11.761728,13.14499418,.00018214,87.8972,284.5981,86.3489,273.7849,0,U,48225,999,25162,-.54460247E-3,-.189E-5,0
ONEWEB-0205,2021-031S,2026-07-13T07:44:04.972128,13.14502464,.0002307,87.8977,284.4918,97.4823,262.6569,0,U,48226,999,25170,.56443E-3,.222E-5,0
ONEWEB-0206,2021-031T,2026-07-13T05:15:38.642400,13.14501977,.0001882,87.8969,284.5127,102.2571,257.8770,0,U,48227,999,25164,-.10444521E-3,-.26E-6,0
ONEWEB-0182,2021-031U,2026-07-13T05:08:47.113152,13.14504213,.00019133,87.8967,284.5202,94.3463,265.7885,0,U,48228,999,25185,-.30044429E-3,-.99E-6,0
ONEWEB-0186,2021-031V,2026-07-13T05:24:47.047392,13.14503078,.00021069,87.8979,284.5108,98.1456,261.9913,0,U,48229,999,25180,.16151136E-3,.73E-6,0
ONEWEB-0181,2021-031W,2026-07-13T04:52:47.432928,13.14501620,.00022248,87.8960,284.5401,99.4928,260.6453,0,U,48230,999,25165,-.567497E-3,-.198E-5,0
ONEWEB-0188,2021-031X,2026-07-13T07:37:13.615680,13.14502489,.0002087,87.8960,284.5170,98.4492,261.6874,0,U,48231,999,25157,.72259E-3,.281E-5,0
ONEWEB-0220,2021-031Y,2026-07-13T04:55:05.319552,13.14498047,.00021865,87.8979,284.5158,93.6669,266.4710,0,U,48232,999,25182,-.25984134E-2,-.95E-5,0
ONEWEB-0165,2021-031Z,2026-07-13T07:25:49.096992,13.14503368,.0002359,87.8965,284.5071,105.1131,255.0260,0,U,48233,999,25179,.44907E-3,.179E-5,0
ONEWEB-0199,2021-031AA,2026-07-13T05:13:22.093248,13.14502329,.00018391,87.8969,284.5129,101.9227,258.2109,0,U,48234,999,25168,-.32558162E-3,-.108E-5,0
ONEWEB-0203,2021-031AB,2026-07-13T04:59:39.566112,13.14501159,.00020319,87.8975,284.5168,105.4432,254.6922,0,U,48235,999,25169,-.56326758E-3,-.196E-5,0
ONEWEB-0197,2021-031AC,2026-07-13T04:22:55.343136,13.14502153,.00020516,87.8974,284.5045,89.0989,271.0375,0,U,48236,999,25160,.14650098E-3,.67E-6,0
ONEWEB-0194,2021-031AD,2026-07-13T07:32:39.408000,13.14504334,.0001945,87.8968,284.5035,102.4782,257.6565,0,U,48237,999,25179,.94453E-3,.363E-5,0
ONEWEB-0193,2021-031AE,2026-07-13T06:05:53.467584,13.14502449,.0001809,87.8972,284.5051,112.3949,247.7372,0,U,48238,999,25173,.40451E-3,.163E-5,0
ONEWEB-0191,2021-031AF,2026-07-13T06:21:51.713568,13.14506269,.0001916,87.8977,284.5037,94.9317,265.2031,0,U,48239,999,25159,-.23193E-3,-.73E-6,0
ONEWEB-0195,2021-031AG,2026-07-13T07:38:22.301088,13.14503310,.0002464,87.8978,284.4931,96.5301,263.6110,0,U,48240,999,25158,.91926E-3,.354E-5,0
ONEWEB-0201,2021-031AH,2026-07-13T07:21:26.155008,13.14503079,.000205,87.8965,284.5102,92.9062,267.2302,0,U,48241,999,25181,.43692E-3,.175E-5,0
ONEWEB-0207,2021-031AJ,2026-07-13T05:03:03.818304,13.14501376,.00020315,87.8970,284.5159,92.8448,267.2915,0,U,48242,999,25171,-.44391221E-3,-.152E-5,0
ONEWEB-0208,2021-031AK,2026-07-12T19:28:46.542720,13.14502270,.00023929,87.8971,284.6003,103.3867,256.7530,0,U,48243,999,25167,-.32427043E-3,-.107E-5,0
ONEWEB-0200,2021-031AL,2026-07-13T12:52:21.832320,13.14502553,.0002123,87.8980,284.4450,97.9808,262.1563,0,U,48244,999,25169,.57124E-3,.225E-5,0
ONEWEB-0217,2021-031AM,2026-07-13T05:56:45.339936,13.14502528,.0002356,87.8977,284.5068,104.0821,256.0570,0,U,48245,999,25160,.39178E-3,.158E-5,0
ONEWEB-0211,2021-045A,2026-07-13T11:51:06.193152,13.16197602,.0002627,87.8990,253.8355,106.8421,253.2998,0,U,48767,999,24790,-.84195E-4,-.19E-6,0
