ONEWEB-0189             
1 48217U 21031H   26194.19541739 -.00000216  00000+0 -61768-3 0  9991
2 48217  87.8962 284.5179 0002279  98.2297 261.9091 13.14502383251643
ONEWEB-0196             
1 48218U 21031J   26194.24933611  .00000191  00000+0  48041-3 0  9991
2 48218  87.8982 284.5125 0002142 103.4458 256.6911 13.14502339251658
ONEWEB-0183             
1 48219U 21031K   26194.22396021  .00000023  00000+0  27604-4 0  9995
2 48219  87.8965 284.5175 0001953  94.3730 265.7623 13.14502151251748
ONEWEB-0185             
1 48220U 21031L   26194.17399572  .00000161  00000+0  39846-3 0  9998
2 48220  87.8975 284.5225 0002228  92.7382 267.4003 13.14503613251664
ONEWEB-0187             
1 48221U 21031M   26194.30628045  .00000154  00000+0  38166-3 0  9990
2 48221  87.8967 284.5102 0002188  98.4055 261.7323 13.14503174251692
ONEWEB-0192             
1 48222U 21031N   26194.20017408 -.00000186  00000+0 -53680-3 0  9990
2 48222  87.8965 284.5214 0002106 100.8628 259.2739 13.14503240251595
ONEWEB-0219             
1 48223U 21031P   26194.33178361  .00000055  00000+0  11379-3 0  9993
2 48223  87.8977 284.4879 0002208  95.9937 264.1445 13.14503161251811
ONEWEB-0202             
1 48224U 21031Q   26194.31277273  .00000199  00000+0  50285-3 0  9992
2 48224  87.8968 284.5045 0002611 108.1314 252.0100 13.14502763251790
ONEWEB-0204             
1 48225U 21031R   26193.81402502 -.00000189  00000+0 -54460-3 0  9992
2 48225  87.8972 284.5981 0001821  86.3489 273.7849 13.14499418251621
ONEWEB-0205             
1 48226U 21031S   26194.32227977  .00000222  00000+0  56443-3 0  9990
2 48226  87.8977 284.4918 0002307  97.4823 262.6569 13.14502464251702
ONEWEB-0206             
1 48227U 21031T   26194.21919725 -.00000026  00000+0 -10445-3 0  9994
2 48227  87.8969 284.5127 0001882 102.2571 257.8770 13.14501977251640
ONEWEB-0182             
1 48228U 21031U   26194.21443418 -.00000099  00000+0 -30044-3 0  9993
2 48228  87.8967 284.5202 0001913  94.3463 265.7885 13.14504213251853
ONEWEB-0186             
1 48229U 21031V   26194.22554453  .00000073  00000+0  16151-3 0  9990
2 48229  87.8979 284.5108 0002106  98.1456 261.9913 13.14503078251804
ONEWEB-0181             
1 48230U 21031W   26194.20332677 -.00000198  00000+0 -56750-3 0  9991
2 48230  87.8960 284.5401 0002224  99.4928 260.6453 13.14501620251650
ONEWEB-0188             
1 48231U 21031X   26194.31751870  .00000281  00000+0  72259-3 0  9997
2 48231  87.8960 284.5170 0002087  98.4492 261.6874 13.14502489251579
ONEWEB-0220             
1 48232U 21031Y   26194.20492268 -.00000950  00000+0 -25984-2 0  9996
2 48232  87.8979 284.5158 0002186  93.6669 266.4710 13.14498047251823
ONEWEB-0165             
1 48233U 21031Z   26194.30959603  .00000179  00000+0  44907-3 0  9997
2 48233  87.8965 284.5071 0002359 105.1131 255.0260 13.14503368251791
ONEWEB-0199             
1 48234U 21031AA  26194.21761682 -.00000108  00000+0 -32558-3 0  9999
2 48234  87.8969 284.5129 0001839 101.9227 258.2109 13.14502329251683
ONEWEB-0203             
1 48235U 21031AB  26194.20809683 -.00000196  00000+0 -56327-3 0  9990
2 48235  87.8975 284.5168 0002031 105.4432 254.6922 13.14501159251690
ONEWEB-0197             
1 48236U 21031AC  26194.18258499  .00000067  00000+0  14650-3 0  9999
2 48236  87.8974 284.5045 0002051  89.0989 271.0375 13.14502153251601
ONEWEB-0194             
1 48237U 21031AD  26194.31434500  .00000363  00000+0  94453-3 0  9992
2 48237  87.8968 284.5035 0001945 102.4782 257.6565 13.14504334251790
ONEWEB-0193             
1 48238U 21031AE  26194.25409106  .00000163  00000+0  40451-3 0  9997
2 48238  87.8972 284.5051 0001809 112.3949 247.7372 13.14502449251733
ONEWEB-0191             
1 48239U 21031AF  26194.26518187 -.00000073  00000+0 -23193-3 0  9995
2 48239  87.8977 284.5037 0001916  94.9317 265.2031 13.14506269251591
ONEWEB-0195             
1 48240U 21031AG  26194.31831367  .00000354  00000+0  91926-3 0  9990
2 48240  87.8978 284.4931 0002464  96.5301 263.6110 13.14503310251589
ONEWEB-0201             
1 48241U 21031AH  26194.30655272  .00000175  00000+0  43692-3 0  9997
2 48241  87.8965 284.5102 0002050  92.9062 267.2302 13.14503079251813
ONEWEB-0207             
1 48242U 21031AJ  26194.21046086 -.00000152  00000+0 -44391-3 0  9999
2 48242  87.8970 284.5159 0002031  92.8448 267.2915 13.14501376251715
ONEWEB-0208             
1 48243U 21031AK  26193.81164980 -.00000107  00000+0 -32427-3 0  9996
2 48243  87.8971 284.6003 0002392 103.3867 256.7530 13.14502270251674
ONEWEB-0200             
1 48244U 21031AL  26194.53636380  .00000225  00000+0  57124-3 0  9995
2 48244  87.8980 284.4450 0002123  97.9808 262.1563 13.14502553251697
ONEWEB-0217             
1 48245U 21031AM  26194.24774699  .00000158  00000+0  39178-3 0  9994
2 48245  87.8977 284.5068 0002356 104.0821 256.0570 13.14502528251606
ONEWEB-0211             
1 48767U 21045A   26194.49382168 -.00000019  00000+0 -84195-4 0  9999
2 48767  87.8990 253.8355 0002627 106.8421 253.2998 13.16197602247901
